{
  "type": "FeatureCollection",
  "features": [
    {
      "type": "Feature",
      "properties": {
        "norad_id": 41948,
        "name": "CARTOSAT-2D",
        "group": "resource",
        "lat": 44.50493488569893,
        "lon": 47.659984428966425,
        "alt_km": 503.7647110106609,
        "timestamp": "2025-12-23T16:57:12.002506+00:00",
        "meta_object_name": "CARTOSAT-2D",
        "meta_object_id": "2017-008A",
        "meta_epoch": "2025-12-23T07:16:15.786336",
        "meta_mean_motion": 15.1916889,
        "meta_eccentricity": 0.00052346,
        "meta_inclination": 97.4375,
        "meta_ra_of_asc_node": 54.6397,
        "meta_arg_of_pericenter": 122.9864,
        "meta_mean_anomaly": 237.1875,
        "meta_ephemeris_type": 0,
        "meta_classification_type": "U",
        "meta_norad_cat_id": 41948,
        "meta_element_set_no": 999,
        "meta_rev_at_epoch": 49087,
        "meta_bstar": 0.00039017343,
        "meta_mean_motion_dot": 8.142e-05,
        "meta_mean_motion_ddot": 0,
        "tle_line1": "1 41948U 17008A   25357.30296049  .00008142  00000+0  39017-3 0  9994",
        "tle_line2": "2 41948  97.4375  54.6397 0005234 122.9864 237.1875 15.19168890490872"
      },
      "geometry": {
        "type": "Point",
        "coordinates": [
          47.659984428966425,
          44.50493488569893
        ]
      }
    },
    {
      "type": "Feature",
      "properties": {
        "norad_id": 42063,
        "name": "SENTINEL-2B",
        "group": "resource",
        "lat": 58.45030929310042,
        "lon": -95.78315829011503,
        "alt_km": 782.5966760253295,
        "timestamp": "2025-12-23T16:57:12.002516+00:00",
        "meta_object_name": "SENTINEL-2B",
        "meta_object_id": "2017-013A",
        "meta_epoch": "2025-12-23T06:19:21.400896",
        "meta_mean_motion": 14.30814422,
        "meta_eccentricity": 0.0001188,
        "meta_inclination": 98.5707,
        "meta_ra_of_asc_node": 69.5617,
        "meta_arg_of_pericenter": 92.5254,
        "meta_mean_anomaly": 267.6065,
        "meta_ephemeris_type": 0,
        "meta_classification_type": "U",
        "meta_norad_cat_id": 42063,
        "meta_element_set_no": 999,
        "meta_rev_at_epoch": 45948,
        "meta_bstar": 4.6549822e-05,
        "meta_mean_motion_dot": 7.8e-07,
        "meta_mean_motion_ddot": 0,
        "tle_line1": "1 42063U 17013A   25357.26344214  .00000078  00000+0  46550-4 0  9993",
        "tle_line2": "2 42063  98.5707  69.5617 0001188  92.5254 267.6065 14.30814422459483"
      },
      "geometry": {
        "type": "Point",
        "coordinates": [
          -95.78315829011503,
          58.45030929310042
        ]
      }
    },
    {
      "type": "Feature",
      "properties": {
        "norad_id": 42767,
        "name": "CARTOSAT-2E",
        "group": "resource",
        "lat": -45.094638586457855,
        "lon": 62.69740709056196,
        "alt_km": 515.8773606602244,
        "timestamp": "2025-12-23T16:57:12.002526+00:00",
        "meta_object_name": "CARTOSAT-2E",
        "meta_object_id": "2017-036C",
        "meta_epoch": "2025-12-23T07:40:10.600896",
        "meta_mean_motion": 15.19296075,
        "meta_eccentricity": 0.00028143,
        "meta_inclination": 97.4535,
        "meta_ra_of_asc_node": 54.768,
        "meta_arg_of_pericenter": 190.0279,
        "meta_mean_anomaly": 170.09,
        "meta_ephemeris_type": 0,
        "meta_classification_type": "U",
        "meta_norad_cat_id": 42767,
        "meta_element_set_no": 999,
        "meta_rev_at_epoch": 47144,
        "meta_bstar": 0.0002158548,
        "meta_mean_motion_dot": 4.487e-05,
        "meta_mean_motion_ddot": 0,
        "tle_line1": "1 42767U 17036C   25357.31956714  .00004487  00000+0  21585-3 0  9997",
        "tle_line2": "2 42767  97.4535  54.7680 0002814 190.0279 170.0900 15.19296075471446"
      },
      "geometry": {
        "type": "Point",
        "coordinates": [
          62.69740709056196,
          -45.094638586457855
        ]
      }
    },
    {
      "type": "Feature",
      "properties": {
        "norad_id": 42920,
        "name": "FORMOSAT-5",
        "group": "resource",
        "lat": -11.775022101069464,
        "lon": -109.92735520909164,
        "alt_km": 725.4032658037495,
        "timestamp": "2025-12-23T16:57:12.002537+00:00",
        "meta_object_name": "FORMOSAT-5",
        "meta_object_id": "2017-049A",
        "meta_epoch": "2025-12-23T04:29:03.045120",
        "meta_mean_motion": 14.50766332,
        "meta_eccentricity": 0.00098239,
        "meta_inclination": 98.244,
        "meta_ra_of_asc_node": 71.2956,
        "meta_arg_of_pericenter": 265.8101,
        "meta_mean_anomaly": 94.1972,
        "meta_ephemeris_type": 0,
        "meta_classification_type": "U",
        "meta_norad_cat_id": 42920,
        "meta_element_set_no": 999,
        "meta_rev_at_epoch": 44115,
        "meta_bstar": 6.6072881e-05,
        "meta_mean_motion_dot": 2.16e-06,
        "meta_mean_motion_ddot": 0,
        "tle_line1": "1 42920U 17049A   25357.18684080  .00000216  00000+0  66073-4 0  9999",
        "tle_line2": "2 42920  98.2440  71.2956 0009823 265.8101  94.1972 14.50766332441155"
      },
      "geometry": {
        "type": "Point",
        "coordinates": [
          -109.92735520909164,
          -11.775022101069464
        ]
      }
    },
    {
      "type": "Feature",
      "properties": {
        "norad_id": 42969,
        "name": "SENTINEL-5P",
        "group": "resource",
        "lat": 70.70847312998832,
        "lon": -90.0078563258114,
        "alt_km": 819.4007562680345,
        "timestamp": "2025-12-23T16:57:12.002547+00:00",
        "meta_object_name": "SENTINEL-5P",
        "meta_object_id": "2017-064A",
        "meta_epoch": "2025-12-22T20:18:42.950880",
        "meta_mean_motion": 14.19519853,
        "meta_eccentricity": 0.00010225,
        "meta_inclination": 98.78,
        "meta_ra_of_asc_node": 295.3414,
        "meta_arg_of_pericenter": 91.3711,
        "meta_mean_anomaly": 268.7582,
        "meta_ephemeris_type": 0,
        "meta_classification_type": "U",
        "meta_norad_cat_id": 42969,
        "meta_element_set_no": 999,
        "meta_rev_at_epoch": 42454,
        "meta_bstar": 5.1443237e-05,
        "meta_mean_motion_dot": 6.4e-07,
        "meta_mean_motion_ddot": 0,
        "tle_line1": "1 42969U 17064A   25356.84633045  .00000064  00000+0  51443-4 0  9992",
        "tle_line2": "2 42969  98.7800 295.3414 0001022  91.3711 268.7582 14.19519853424542"
      },
      "geometry": {
        "type": "Point",
        "coordinates": [
          -90.0078563258114,
          70.70847312998832
        ]
      }
    },
    {
      "type": "Feature",
      "properties": {
        "norad_id": 42987,
        "name": "SKYSAT-C11",
        "group": "resource",
        "lat": -17.445629575884883,
        "lon": -46.87256760089484,
        "alt_km": 428.1516203967649,
        "timestamp": "2025-12-23T16:57:12.002574+00:00",
        "meta_object_name": "SKYSAT-C11",
        "meta_object_id": "2017-068A",
        "meta_epoch": "2025-12-22T19:55:58.994688",
        "meta_mean_motion": 15.47855461,
        "meta_eccentricity": 0.000117,
        "meta_inclination": 97.4148,
        "meta_ra_of_asc_node": 134.575,
        "meta_arg_of_pericenter": 96.9665,
        "meta_mean_anomaly": 263.1718,
        "meta_ephemeris_type": 0,
        "meta_classification_type": "U",
        "meta_norad_cat_id": 42987,
        "meta_element_set_no": 999,
        "meta_rev_at_epoch": 45587,
        "meta_bstar": 0.00044558877,
        "meta_mean_motion_dot": 0.00023113,
        "meta_mean_motion_ddot": 0,
        "tle_line1": "1 42987U 17068A   25356.83054392  .00023113  00000+0  44559-3 0  9996",
        "tle_line2": "2 42987  97.4148 134.5750 0001170  96.9665 263.1718 15.47855461455873"
      },
      "geometry": {
        "type": "Point",
        "coordinates": [
          -46.87256760089484,
          -17.445629575884883
        ]
      }
    },
    {
      "type": "Feature",
      "properties": {
        "norad_id": 42988,
        "name": "SKYSAT-C10",
        "group": "resource",
        "lat": 26.69261851136911,
        "lon": 124.82885362246614,
        "alt_km": 465.55847188047755,
        "timestamp": "2025-12-23T16:57:12.002588+00:00",
        "meta_object_name": "SKYSAT-C10",
        "meta_object_id": "2017-068B",
        "meta_epoch": "2025-12-23T07:25:56.584416",
        "meta_mean_motion": 15.32276557,
        "meta_eccentricity": 0.00053363,
        "meta_inclination": 97.4269,
        "meta_ra_of_asc_node": 128.1915,
        "meta_arg_of_pericenter": 74.5871,
        "meta_mean_anomaly": 285.596,
        "meta_ephemeris_type": 0,
        "meta_classification_type": "U",
        "meta_norad_cat_id": 42988,
        "meta_element_set_no": 999,
        "meta_rev_at_epoch": 45541,
        "meta_bstar": 0.00037307098,
        "meta_mean_motion_dot": 0.00011557,
        "meta_mean_motion_ddot": 0,
        "tle_line1": "1 42988U 17068B   25357.30968269  .00011557  00000+0  37307-3 0  9999",
        "tle_line2": "2 42988  97.4269 128.1915 0005336  74.5871 285.5960 15.32276557455413"
      },
      "geometry": {
        "type": "Point",
        "coordinates": [
          124.82885362246614,
          26.69261851136911
        ]
      }
    }
  ]
}